[{"OBJECT_NAME":"STARLINK-5589","OBJECT_ID":"2023-099G","EPOCH":"2025-07-31T21:50:01.715712","MEAN_MOTION":15.02549615,"ECCENTRICITY":0.00015,"INCLINATION":43.0056,"RA_OF_ASC_NODE":8.7952,"ARG_OF_PERICENTER":273.1965,"MEAN_ANOMALY":86.8706,"EPHEMERIS_TYPE":0,"CLASSIFICATION_TYPE":"U","NORAD_CAT_ID":57334,"ELEMENT_SET_NO":999,"REV_AT_EPOCH":11290,"BSTAR":-5.1499e-5,"MEAN_MOTION_DOT":-9.0e-6,"MEAN_MOTION_DDOT":0},{"OBJECT_NAME":"STARLINK-6316","OBJECT_ID":"2023-099H","EPOCH":"2025-07-31T18:22:36.243264","MEAN_MOTION":15.02534228,"ECCENTRICITY":0.000127,"INCLINATION":43.0047,"RA_OF_ASC_NODE":9.4377,"ARG_OF_PERICENTER":264.7927,"MEAN_ANOMALY":95.277,"EPHEMERIS_TYPE":0,"CLASSIFICATION_TYPE":"U","NORAD_CAT_ID":57335,"ELEMENT_SET_NO":999,"REV_AT_EPOCH":11288,"BSTAR":1.8971e-5,"MEAN_MOTION_DOT":5.3e-7,"MEAN_MOTION_DDOT":0},{"OBJECT_NAME":"STARLINK-6320","OBJECT_ID":"2023-099J","EPOCH":"2025-07-31T20:50:54.391776","MEAN_MOTION":15.02532638,"ECCENTRICITY":0.0001056,"INCLINATION":43.0043,"RA_OF_ASC_NODE":8.4716,"ARG_OF_PERICENTER":271.6127,"MEAN_ANOMALY":88.4594,"EPHEMERIS_TYPE":0,"CLASSIFICATION_TYPE":"U","NORAD_CAT_ID":57336,"ELEMENT_SET_NO":999,"REV_AT_EPOCH":11364,"BSTAR":1.7798e-5,"MEAN_MOTION_DOT":3.7e-7,"MEAN_MOTION_DDOT":0},{"OBJECT_NAME":"STARLINK-6322","OBJECT_ID":"2023-099K","EPOCH":"2025-07-31T21:45:39.859776","MEAN_MOTION":15.02235252,"ECCENTRICITY":0.0002695,"INCLINATION":43.0012,"RA_OF_ASC_NODE":8.772,"ARG_OF_PERICENTER":71.1507,"MEAN_ANOMALY":288.9627,"EPHEMERIS_TYPE":0,"CLASSIFICATION_TYPE":"U","NORAD_CAT_ID":57337,"ELEMENT_SET_NO":999,"REV_AT_EPOCH":11364,"BSTAR":-0.0039293,"MEAN_MOTION_DOT":-0.00052472,"MEAN_MOTION_DDOT":0},{"OBJECT_NAME":"STARLINK-6374","OBJECT_ID":"2023-099L","EPOCH":"2025-07-31T18:27:23.906880","MEAN_MOTION":15.02534095,"ECCENTRICITY":0.0001185,"INCLINATION":43.0043,"RA_OF_ASC_NODE":9.4584,"ARG_OF_PERICENTER":263.925,"MEAN_ANOMALY":96.1457,"EPHEMERIS_TYPE":0,"CLASSIFICATION_TYPE":"U","NORAD_CAT_ID":57338,"ELEMENT_SET_NO":999,"REV_AT_EPOCH":11288,"BSTAR":-3.944e-7,"MEAN_MOTION_DOT":-2.09e-6,"MEAN_MOTION_DDOT":0},{"OBJECT_NAME":"STARLINK-6332","OBJECT_ID":"2023-099M","EPOCH":"2025-07-31T18:36:58.011552","MEAN_MOTION":15.0255814,"ECCENTRICITY":0.0001513,"INCLINATION":43.0053,"RA_OF_ASC_NODE":9.5055,"ARG_OF_PERICENTER":271.7455,"MEAN_ANOMALY":88.3215,"EPHEMERIS_TYPE":0,"CLASSIFICATION_TYPE":"U","NORAD_CAT_ID":57339,"ELEMENT_SET_NO":999,"REV_AT_EPOCH":11288,"BSTAR":9.5333e-5,"MEAN_MOTION_DOT":1.085e-5,"MEAN_MOTION_DDOT":0},{"OBJECT_NAME":"STARLINK-6321","OBJECT_ID":"2023-099N","EPOCH":"2025-07-31T18:09:48.791808","MEAN_MOTION":15.02538406,"ECCENTRICITY":0.0001143,"INCLINATION":43.0049,"RA_OF_ASC_NODE":9.3656,"ARG_OF_PERICENTER":269.347,"MEAN_ANOMALY":90.7241,"EPHEMERIS_TYPE":0,"CLASSIFICATION_TYPE":"U","NORAD_CAT_ID":57340,"ELEMENT_SET_NO":999,"REV_AT_EPOCH":11288,"BSTAR":4.582e-5,"MEAN_MOTION_DOT":4.15e-6,"MEAN_MOTION_DDOT":0},{"OBJECT_NAME":"STARLINK-6377","OBJECT_ID":"2023-099P","EPOCH":"2025-07-31T18:17:48.372288","MEAN_MOTION":15.0253621,"ECCENTRICITY":0.0001165,"INCLINATION":43.0046,"RA_OF_ASC_NODE":9.4082,"ARG_OF_PERICENTER":273.8926,"MEAN_ANOMALY":86.1783,"EPHEMERIS_TYPE":0,"CLASSIFICATION_TYPE":"U","NORAD_CAT_ID":57341,"ELEMENT_SET_NO":999,"REV_AT_EPOCH":11288,"BSTAR":3.9917e-5,"MEAN_MOTION_DOT":3.36e-6,"MEAN_MOTION_DDOT":0},{"OBJECT_NAME":"STARLINK-6375","OBJECT_ID":"2023-099Q","EPOCH":"2025-07-31T17:45:50.680224","MEAN_MOTION":15.02527874,"ECCENTRICITY":7.53e-5,"INCLINATION":43.0018,"RA_OF_ASC_NODE":9.2393,"ARG_OF_PERICENTER":284.9149,"MEAN_ANOMALY":75.161,"EPHEMERIS_TYPE":0,"CLASSIFICATION_TYPE":"U","NORAD_CAT_ID":57342,"ELEMENT_SET_NO":999,"REV_AT_EPOCH":11288,"BSTAR":-0.00018973,"MEAN_MOTION_DOT":-2.765e-5,"MEAN_MOTION_DDOT":0},{"OBJECT_NAME":"STARLINK-6379","OBJECT_ID":"2023-099R","EPOCH":"2025-07-31T18:13:00.783840","MEAN_MOTION":15.02534984,"ECCENTRICITY":0.00014,"INCLINATION":43.0055,"RA_OF_ASC_NODE":9.378,"ARG_OF_PERICENTER":268.8635,"MEAN_ANOMALY":91.2047,"EPHEMERIS_TYPE":0,"CLASSIFICATION_TYPE":"U","NORAD_CAT_ID":57343,"ELEMENT_SET_NO":999,"REV_AT_EPOCH":11288,"BSTAR":-8.8925e-7,"MEAN_MOTION_DOT":-2.16e-6,"MEAN_MOTION_DDOT":0},{"OBJECT_NAME":"STARLINK-6380","OBJECT_ID":"2023-099S","EPOCH":"2025-07-31T18:00:13.128480","MEAN_MOTION":15.02529359,"ECCENTRICITY":0.000141,"INCLINATION":43.0043,"RA_OF_ASC_NODE":9.3115,"ARG_OF_PERICENTER":272.6398,"MEAN_ANOMALY":87.4283,"EPHEMERIS_TYPE":0,"CLASSIFICATION_TYPE":"U","NORAD_CAT_ID":57344,"ELEMENT_SET_NO":999,"REV_AT_EPOCH":11288,"BSTAR":-0.00014279,"MEAN_MOTION_DOT":-2.132e-5,"MEAN_MOTION_DDOT":0},{"OBJECT_NAME":"STARLINK-6373","OBJECT_ID":"2023-099T","EPOCH":"2025-07-31T18:05:01.322592","MEAN_MOTION":15.02534143,"ECCENTRICITY":0.0001398,"INCLINATION":43.0057,"RA_OF_ASC_NODE":9.3361,"ARG_OF_PERICENTER":268.3181,"MEAN_ANOMALY":91.7501,"EPHEMERIS_TYPE":0,"CLASSIFICATION_TYPE":"U","NORAD_CAT_ID":57345,"ELEMENT_SET_NO":999,"REV_AT_EPOCH":11288,"BSTAR":2.7057e-5,"MEAN_MOTION_DOT":1.62e-6,"MEAN_MOTION_DDOT":0},{"OBJECT_NAME":"STARLINK-6359","OBJECT_ID":"2023-099U","EPOCH":"2025-07-31T20:47:42.448128","MEAN_MOTION":15.02535559,"ECCENTRICITY":0.0001081,"INCLINATION":43.0041,"RA_OF_ASC_NODE":8.4627,"ARG_OF_PERICENTER":267.7529,"MEAN_ANOMALY":92.319,"EPHEMERIS_TYPE":0,"CLASSIFICATION_TYPE":"U","NORAD_CAT_ID":57346,"ELEMENT_SET_NO":999,"REV_AT_EPOCH":11364,"BSTAR":3.4055e-5,"MEAN_MOTION_DOT":2.56e-6,"MEAN_MOTION_DDOT":0},{"OBJECT_NAME":"STARLINK-6378","OBJECT_ID":"2023-099V","EPOCH":"2025-07-31T11:30:55.361088","MEAN_MOTION":15.02533626,"ECCENTRICITY":0.0001133,"INCLINATION":43.0046,"RA_OF_ASC_NODE":10.7233,"ARG_OF_PERICENTER":274.4253,"MEAN_ANOMALY":85.646,"EPHEMERIS_TYPE":0,"CLASSIFICATION_TYPE":"U","NORAD_CAT_ID":57347,"ELEMENT_SET_NO":999,"REV_AT_EPOCH":11284,"BSTAR":1.2592e-5,"MEAN_MOTION_DOT":-3.4e-7,"MEAN_MOTION_DDOT":0},{"OBJECT_NAME":"STARLINK-6372","OBJECT_ID":"2023-099W","EPOCH":"2025-07-31T11:05:20.784768","MEAN_MOTION":15.0253881,"ECCENTRICITY":0.00014,"INCLINATION":43.0047,"RA_OF_ASC_NODE":10.591,"ARG_OF_PERICENTER":274.5963,"MEAN_ANOMALY":85.4719,"EPHEMERIS_TYPE":0,"CLASSIFICATION_TYPE":"U","NORAD_CAT_ID":57348,"ELEMENT_SET_NO":999,"REV_AT_EPOCH":11284,"BSTAR":-3.6608e-5,"MEAN_MOTION_DOT":-6.98e-6,"MEAN_MOTION_DDOT":0},{"OBJECT_NAME":"STARLINK-6376","OBJECT_ID":"2023-099X","EPOCH":"2025-07-31T11:08:32.755200","MEAN_MOTION":15.0254375,"ECCENTRICITY":0.0001773,"INCLINATION":43.004,"RA_OF_ASC_NODE":10.6107,"ARG_OF_PERICENTER":268.3133,"MEAN_ANOMALY":91.7506,"EPHEMERIS_TYPE":0,"CLASSIFICATION_TYPE":"U","NORAD_CAT_ID":57349,"ELEMENT_SET_NO":999,"REV_AT_EPOCH":11356,"BSTAR":5.6686e-6,"MEAN_MOTION_DOT":-1.27e-6,"MEAN_MOTION_DDOT":0},{"OBJECT_NAME":"STARLINK-6362","OBJECT_ID":"2023-099Y","EPOCH":"2025-07-31T17:40:00.215904","MEAN_MOTION":15.02526344,"ECCENTRICITY":9.65e-5,"INCLINATION":43.0042,"RA_OF_ASC_NODE":357.0418,"ARG_OF_PERICENTER":249.7472,"MEAN_ANOMALY":110.3267,"EPHEMERIS_TYPE":0,"CLASSIFICATION_TYPE":"U","NORAD_CAT_ID":57350,"ELEMENT_SET_NO":999,"REV_AT_EPOCH":11302,"BSTAR":-5.7001e-5,"MEAN_MOTION_DOT":-9.73e-6,"MEAN_MOTION_DDOT":0}]
