STARLINK-5589           
1 57334U 23099G   25212.90974208 -.00000900  00000+0 -51499-4 0  9998
2 57334  43.0056   8.7952 0001500 273.1965  86.8706 15.02549615112908
STARLINK-6316           
1 57335U 23099H   25212.76569726  .00000053  00000+0  18971-4 0  9993
2 57335  43.0047   9.4377 0001270 264.7927  95.2770 15.02534228112882
STARLINK-6320           
1 57336U 23099J   25212.86868509  .00000037  00000+0  17798-4 0  9994
2 57336  43.0043   8.4716 0001056 271.6127  88.4594 15.02532638113642
STARLINK-6322           
1 57337U 23099K   25212.90671134 -.00052472  00000+0 -39293-2 0  9990
2 57337  43.0012   8.7720 0002695  71.1507 288.9627 15.02235252112906
STARLINK-6374           
1 57338U 23099L   25212.76902670 -.00000209  00000+0 -39440-6 0  9996
2 57338  43.0043   9.4584 0001185 263.9250  96.1457 15.02534095112880
STARLINK-6332           
1 57339U 23099M   25212.77567143  .00001085  00000+0  95333-4 0  9992
2 57339  43.0053   9.5055 0001513 271.7455  88.3215 15.02558140112887
STARLINK-6321           
1 57340U 23099N   25212.75681472  .00000415  00000+0  45820-4 0  9996
2 57340  43.0049   9.3656 0001143 269.3470  90.7241 15.02538406112887
STARLINK-6377           
1 57341U 23099P   25212.76236542  .00000336  00000+0  39917-4 0  9994
2 57341  43.0046   9.4082 0001165 273.8926  86.1783 15.02536210112880
STARLINK-6375           
1 57342U 23099Q   25212.74016991 -.00002765  00000+0 -18973-3 0  9995
2 57342  43.0018   9.2393 0000753 284.9149  75.1610 15.02527874112888
STARLINK-6379           
1 57343U 23099R   25212.75903685 -.00000216  00000+0 -88925-6 0  9998
2 57343  43.0055   9.3780 0001400 268.8635  91.2047 15.02534984112885
STARLINK-6380           
1 57344U 23099S   25212.75015195 -.00002132  00000+0 -14279-3 0  9996
2 57344  43.0043   9.3115 0001410 272.6398  87.4283 15.02529359112884
STARLINK-6373           
1 57345U 23099T   25212.75348753  .00000162  00000+0  27057-4 0  9994
2 57345  43.0057   9.3361 0001398 268.3181  91.7501 15.02534143112888
STARLINK-6359           
1 57346U 23099U   25212.86646352  .00000256  00000+0  34055-4 0  9993
2 57346  43.0041   8.4627 0001081 267.7529  92.3190 15.02535559113643
STARLINK-6378           
1 57347U 23099V   25212.47980742 -.00000034  00000+0  12592-4 0  9992
2 57347  43.0046  10.7233 0001133 274.4253  85.6460 15.02533626112844
STARLINK-6372           
1 57348U 23099W   25212.46204612 -.00000698  00000+0 -36608-4 0  9998
2 57348  43.0047  10.5910 0001400 274.5963  85.4719 15.02538810112847
STARLINK-6376           
1 57349U 23099X   25212.46426800 -.00000127  00000+0  56686-5 0  9999
2 57349  43.0040  10.6107 0001773 268.3133  91.7506 15.02543750113566
STARLINK-6362           
1 57350U 23099Y   25212.73611361 -.00000973  00000+0 -57001-4 0  9990
2 57350  43.0042 357.0418 0000965 249.7472 110.3267 15.02526344113027
